1 40086U 14040A   15102.74701588  .00000964  00000-0  27196-3 0  9993,2 40086 047.0056 207.6214 0016012 206.7468 153.2597 14.52794040 39704
1 40086U 14040A   15104.12247227  .00001161  00000-0  31925-3 0  9997,2 40086 047.0054 201.1811 0016142 212.7030 147.2861 14.52798383 39903
1 40086U 14040A   15105.36038245  .00000850  00000-0  24441-3 0  9991,2 40086 047.0055 195.3860 0016175 217.9662 142.0046 14.52799509 40086
1 40086U 14040A   15106.46074619  .00000731  00000-0  21582-3 0  9999,2 40086 047.0064 190.2341 0016215 223.1719 136.7883 14.52801162 40247
1 40086U 14040A   15107.69865196  .00001103  00000-0  30523-3 0  9992,2 40086 047.0073 184.4378 0016297 228.6438 131.3054 14.52805360 40425
1 40086U 14040A   15109.21164415  .00001120  00000-0  30925-3 0  9993,2 40086 047.0071 177.3521 0016296 235.5254 124.4090 14.52809280 40648
1 40086U 14040A   15110.38077344  .00000850  00000-0  24429-3 0  9998,2 40086 047.0065 171.8769 0016299 241.1308 118.7914 14.52810499 40814
1 40086U 14040A   15111.61867468  .00000827  00000-0  23875-3 0  9997,2 40086 047.0048 166.0842 0016204 246.9535 112.9631 14.52812662 40999
1 40086U 14040A   15112.99411686  .00000891  00000-0  25426-3 0  9991,2 40086 047.0049 159.6434 0016182 253.4997 106.4104 14.52815780 41195
1 40086U 14040A   15114.09446795  .00001015  00000-0  28391-3 0  9996,2 40086 047.0047 154.4900 0016272 257.9349 101.9727 14.52818864 41359
1 40086U 14040A   15115.33236153 -.00000334  00000-0 -40472-4 0  9999,2 40086 047.0048 148.6951 0016460 261.5001 098.3671 14.52813222 41536
1 40086U 14040A   15116.02009382 -.00001580  00000-0 -34046-3 0  9991,2 40086 047.0043 145.4752 0017112 264.5093 095.3771 14.52805526 41631
1 40086U 14040A   15116.50150697 -.00005778  00000-0 -13523-2 0  9999,2 40086 047.0043 143.2218 0016731 268.3252 091.5017 14.52782726 41704
1 40086U 14040A   15117.53312804 -.00005972  00000-0 -13996-2 0  9993,2 40086 047.0045 138.3886 0016603 273.4315 086.4667 14.52771456 41855
1 40086U 14040A   15118.49596004 -.00002718  00000-0 -61479-3 0  9990,2 40086 047.0052 133.8823 0016480 279.4705 080.4457 14.52778054 41993
1 40086U 14040A   15119.18369730 -.00000334  00000-0 -40565-4 0  9997,2 40086 047.0042 130.6590 0016618 280.9988 078.9471 14.52785745 42096
1 40086U 14040A   15120.42160748  .00000553  00000-0  17303-3 0  9998,2 40086 047.0063 124.8629 0016389 285.8722 074.0363 14.52791259 42276
1 40086U 14040A   15120.55917050 -.00001045  00000-0  00000+0 0  9998,2 40086 047.0029 124.2248 0016399 285.5472 074.4101 14.52777665 42290
1 40086U 14040A   15120.55917050 -.00001045  00000-0  00000+0 0  9998,2 40086 047.0029 124.2248 0016399 285.5472 074.4101 14.52777665 42290
1 40086U 14040A   15121.45320669  .00000526  00000-0  16643-3 0  9998,2 40086 047.0064 120.0324 0016389 290.6312 069.2807 14.52792645 42422
1 40086U 14040A   15122.48480560  .00000446  00000-0  14722-3 0  9996,2 40086 047.0061 115.2018 0016415 295.0423 064.8756 14.52793582 42578
1 40086U 14040A   15124.06658970  .00000355  00000-0  12532-3 0  9990,2 40086 047.0067 107.7923 0016393 301.9974 057.9324 14.52794896 42807
1 40086U 14040A   15125.16696036  .00000268  00000-0  10441-3 0  9997,2 40086 047.0058 102.6420 0016429 306.4182 053.5178 14.52795510 42964
1 40086U 14040A   15126.33610215  .00000490  00000-0  15790-3 0  9991,2 40086 047.0051 097.1696 0016352 310.8458 049.0991 14.52797898 43134
1 40086U 14040A   15127.71156451  .00000319  00000-0  11663-3 0  9996,2 40086 047.0039 090.7293 0016275 316.9503 043.0102 14.52798426 43332
1 40086U 14040A   15128.88070508  .00000482  00000-0  15575-3 0  9990,2 40086 047.0034 085.2551 0016179 321.8404 038.1351 14.52800698 43506
1 40086U 14040A   15129.98107079  .00000494  00000-0  15884-3 0  9992,2 40086 047.0040 080.1014 0016052 326.7811 033.2035 14.52802332 43666
1 40086U 14040A   15131.28775478  .00000583  00000-0  18008-3 0  9992,2 40086 047.0060 073.9846 0016007 332.6835 027.3191 14.52804882 43853
1 40086U 14040A   15132.86952617  .00000735  00000-0  21671-3 0  9998,2 40086 047.0059 066.5774 0016030 340.4137 019.6072 14.52808306 44080
1 40086U 14040A   15134.10743276  .00001019  00000-0  28508-3 0  9998,2 40086 047.0053 060.7800 0016272 347.2955 012.7493 14.52812422 44266
1 40086U 14040A   15135.20779121  .00001141  00000-0  31433-3 0  9995,2 40086 047.0070 055.6276 0016121 352.0219 008.0443 14.52815817 44427
1 40086U 14040A   15136.30814637  .00001076  00000-0  29868-3 0  9995,2 40086 047.0067 050.4743 0016010 356.8683 003.2109 14.52818292 44582
1 40086U 14040A   15138.16499169  .00001055  00000-0  29374-3 0  9999,2 40086 047.0063 041.7825 0015922 004.9262 355.1770 14.52822827 44859
1 40086U 14040A   15139.19657094  .00000906  00000-0  25784-3 0  9991,2 40086 047.0072 036.9515 0015851 009.8718 350.2476 14.52824595 45003
1 40086U 14040A   15140.77832251  .00000718  00000-0  21257-3 0  9999,2 40086 047.0076 029.5434 0015878 017.1496 342.9900 14.52826996 45231
1 40086U 14040A   15141.80989624  .00000941  00000-0  26624-3 0  9992,2 40086 047.0091 024.7123 0015675 021.9007 338.2552 14.52830598 45386
1 40086U 14040A   15143.04778553  .00000872  00000-0  24971-3 0  9993,2 40086 047.0088 018.9164 0016044 027.6689 332.5035 14.52832606 45567
1 40086U 14040A   15144.07935944  .00000400  00000-0  13612-3 0  9993,2 40086 047.0081 014.0894 0015662 032.5562 327.6284 14.52831692 45719
1 40086U 14040A   15145.17970351  .00000363  00000-0  12733-3 0  9997,2 40086 047.0087 008.9369 0015657 037.6117 322.5866 14.52832726 45876
1 40086U 14040A   15147.03653234  .00000230  00000-0  95301-4 0  9998,2 40086 047.0080 000.2427 0015562 046.3888 313.8293 14.52833704 46141
1 40086U 14040A   15148.06810158  .00000303  00000-0  11288-3 0  9994,2 40086 047.0079 355.4112 0015510 051.1021 309.1231 14.52834925 46293
1 40086U 14040A   15149.58107113  .00000234  00000-0  96084-4 0  9993,2 40086 047.0052 348.3324 0015238 057.6982 302.5375 14.52835628 46516
1 40086U 14040A   15150.81895367  .00000207  00000-0  89581-4 0  9990,2 40086 047.0052 342.5360 0015201 063.6675 296.5767 14.52836322 46696
1 40086U 14040A   15151.98806394  .00000198  00000-0  87474-4 0  9999,2 40086 047.0052 337.0616 0015182 069.1605 291.0903 14.52837097 46862
1 40086U 14040A   15153.77611308  .00000157  00000-0  77618-4 0  9991,2 40086 047.0053 328.6890 0015133 077.7905 282.4673 14.52838106 47127
1 40086U 14040A   15154.80767900  .00000170  00000-0  80664-4 0  9996,2 40086 047.0052 323.8586 0015126 082.6909 277.5693 14.52838843 47277
1 40086U 14040A   15155.90801505  .00000217  00000-0  92082-4 0  9997,2 40086 047.0052 318.7062 0015125 087.9009 272.3606 14.52839846 47436
1 40086U 14040A   15157.48974662  .00000311  00000-0  11460-3 0  9992,2 40086 047.0051 311.2994 0015104 095.5345 264.7261 14.52841410 47669
1 40086U 14040A   15158.79639279  .00000341  00000-0  12195-3 0  9998,2 40086 047.0049 305.1809 0015095 101.8453 258.4124 14.52842576 47856
1 40086U 14040A   15159.82795377  .00000523  00000-0  16571-3 0  9999,2 40086 047.0050 300.3504 0015105 106.7216 253.5326 14.52844640 48002
1 40086U 14040A   15160.72197277 +.00000498 +00000-0 +15974-3 0  9992,2 40086 047.0050 296.1641 0015113 111.0454 249.2047 14.52845427048138
1 40086U 14040A   15160.85952313  .00000543  00000-0  17048-3 0  9991,2 40086 047.0048 295.5197 0015063 111.6771 248.5718 14.52833113 48154
1 40086U 14040A   15161.82231986 +.00000810 +00000-0 +23481-3 0  9990,2 40086 047.0048 291.0115 0015068 116.2542 243.9891 14.52834830048290
1 40086U 14040A   15162.71634423 +.00000683 +00000-0 +20408-3 0  9996,2 40086 047.0047 286.8253 0015097 120.4708 239.7668 14.52835923048421
1 40086U 14040A   15163.74790962 +.00000730 +00000-0 +21546-3 0  9998,2 40086 047.0047 281.9951 0015116 125.3388 234.8911 14.52837866048573
1 40086U 14040A   15164.77947336 +.00000709 +00000-0 +21027-3 0  9991,2 40086 047.0046 277.1648 0015143 130.3004 229.9205 14.52839487048722
1 40086U 14040A   15165.74226471 +.00000671 +00000-0 +20118-3 0  9997,2 40086 047.0045 272.6564 0015174 134.8911 225.3206 14.52840978048861
1 40086U 14040A   15166.36120162 +.00000588 +00000-0 +18116-3 0  9998,2 40086 047.0044 269.7581 0015196 137.8386 222.3669 14.52841529048952
1 40086U 14040A   15167.73661527  .00000507  00000-0  16180-3 0  9995,2 40086 047.0043 263.3178 0015256 144.2937 215.8970 14.52843295 49151
1 40086U 14040A   15168.69940376 +.00000436 +00000-0 +14460-3 0  9993,2 40086 047.0042 258.8094 0015306 148.7776 211.4019 14.52844327049290
1 40086U 14040A   15169.11202708  .00000429  00000-0  14299-3 0  9993,2 40086 047.0042 256.8772 0015327 150.7503 209.4242 14.52844861 49350
1 40086U 14040A   15169.31833877 +.00000369 +00000-0 +12864-3 0  9991,2 40086 047.0041 255.9110 0015344 151.7545 208.4173 14.52844810049380
1 40086U 14040A   15170.21235548  .00000323  00000-0  11750-3 0  9996,2 40086 047.0041 251.7248 0015377 155.9034 204.2572 14.52845723 49517
1 40086U 14040A   15171.51899465  .00000226  00000-0  94172-4 0  9996,2 40086 047.0039 245.6064 0015442 161.9224 198.2212 14.52846630 49705
1 40086U 14040A   15172.61932165  .00000155  00000-0  77187-4 0  9991,2 40086 047.0038 240.4541 0015499 167.0594 193.0690 14.52847222 49864
1 40086U 14040A   15173.65087771  .00000123  00000-0  69400-4 0  9994,2 40086 047.0036 235.6238 0015558 171.8321 188.2818 14.52847820 50019
1 40086U 14040A   15175.16382480  .00000242  00000-0  97890-4 0  9993,2 40086 047.0034 228.5390 0015636 178.7623 181.3301 14.52849709 50238
1 40086U 14040A   15176.47046138  .00000105  00000-0  65025-4 0  9998,2 40086 047.0032 222.4206 0015702 184.6898 175.3841 14.52849622 50426
1 40086U 14040A   15177.50201565  .00000091  00000-0  61663-4 0  9998,2 40086 047.0030 217.5901 0015757 189.3480 170.7112 14.52850174 50570
1 40086U 14040A   15178.53356963  .00000059  00000-0  54027-4 0  9995,2 40086 047.0029 212.7594 0015816 194.0159 166.0288 14.52850575 50729
1 40086U 14040A   15180.11528509  .00000008  00000-0  41788-4 0  9993,2 40086 047.0029 205.3524 0015906 201.1511 158.8716 14.52851165 50958
